COMMENT,ORIGINATOR,NORAD_CAT_ID,OBJECT_NAME,OBJECT_TYPE,CLASSIFICATION_TYPE,INTLDES,EPOCH,EPOCH_MICROSECONDS,MEAN_MOTION,ECCENTRICITY,INCLINATION,RA_OF_ASC_NODE,ARG_OF_PERICENTER,MEAN_ANOMALY,EPHEMERIS_TYPE,ELEMENT_SET_NO,REV_AT_EPOCH,BSTAR,MEAN_MOTION_DOT,MEAN_MOTION_DDOT,FILE,TLE_LINE0,TLE_LINE1,TLE_LINE2,OBJECT_ID,OBJECT_NUMBER,SEMIMAJOR_AXIS,PERIOD,APOGEE,PERIGEE,DECAYED
"GENERATED VIA SPACETRACK.ORG API","18 SPCS","56232","FENGYUN 3G","PAYLOAD","U","23055A","2023-06-13 19:14:27","799296","15.53314077","0.0004634","49.9982","254.954","17.8645","342.2484","0","999","912","0.00046197","0.0002938","0","3932371","0 FENGYUN 3G","1 56232U 23055A   23164.80171064  .00029380  00000-0  46197-3 0  9998","2 56232  49.9982 254.9540 0004634  17.8645 342.2484 15.53314077  9123","2023-055A","56232","6785.195","92.705","410.204","403.916","0"
"GENERATED VIA SPACETRACK.ORG API","18 SPCS","56232","FENGYUN 3G","PAYLOAD","U","23055A","2023-06-14 01:24:59","935392","15.53328794","0.0004614","49.9983","253.6267","18.9932","341.1206","0","999","916","0.00045961","0.00029243","0","3932660","0 FENGYUN 3G","1 56232U 23055A   23165.05902703  .00029243  00000-0  45961-3 0  9994","2 56232  49.9983 253.6267 0004614  18.9932 341.1206 15.53328794  9160","2023-055A","56232","6785.152","92.704","410.148","403.886","0"
"GENERATED VIA SPACETRACK.ORG API","18 SPCS","56232","FENGYUN 3G","PAYLOAD","U","23055A","2023-06-14 10:40:47","763264","15.53350231","0.0004639","49.9984","251.6365","20.7688","339.3468","0","999","922","0.00043843","0.00027891","0","3932928","0 FENGYUN 3G","1 56232U 23055A   23165.44499726  .00027891  00000-0  43843-3 0  9997","2 56232  49.9984 251.6365 0004639  20.7688 339.3468 15.53350231  9221","2023-055A","56232","6785.090","92.703","410.102","403.807","0"
"GENERATED VIA SPACETRACK.ORG API","18 SPCS","56232","FENGYUN 3G","PAYLOAD","U","23055A","2023-06-14 12:13:25","694688","15.53352505","0.0004661","49.9985","251.3048","20.9403","339.1755","0","999","923","0.00041237","0.00026202","0","3932965","0 FENGYUN 3G","1 56232U 23055A   23165.50932517  .00026202  00000-0  41237-3 0  9994","2 56232  49.9985 251.3048 0004661  20.9403 339.1755 15.53352505  9233","2023-055A","56232","6785.083","92.703","410.110","403.785","0"
"GENERATED VIA SPACETRACK.ORG API","18 SPCS","56232","FENGYUN 3G","PAYLOAD","U","23055A","2023-06-14 18:23:57","276960","15.5336702","0.0004684","49.9984","249.9776","21.6759","338.4406","0","999","927","0.00040586","0.00025793","0","3933190","0 FENGYUN 3G","1 56232U 23055A   23165.76663515  .00025793  00000-0  40586-3 0  9991","2 56232  49.9984 249.9776 0004684  21.6759 338.4406 15.53367020  9277","2023-055A","56232","6785.041","92.702","410.084","403.728","0"
"GENERATED VIA SPACETRACK.ORG API","18 SPCS","56232","FENGYUN 3G","PAYLOAD","U","23055A","2023-06-14 19:56:35","135808","15.53369881","0.0004674","49.9984","249.6457","22.0004","338.1164","0","999","928","0.00038842","0.00024663","0","3933215","0 FENGYUN 3G","1 56232U 23055A   23165.83096222  .00024663  00000-0  38842-3 0  9991","2 56232  49.9984 249.6457 0004674  22.0004 338.1164 15.53369881  9283","2023-055A","56232","6785.032","92.702","410.069","403.726","0"
"GENERATED VIA SPACETRACK.ORG API","18 SPCS","56232","FENGYUN 3G","PAYLOAD","U","23055A","2023-06-15 02:07:06","484800","15.53383221","0.0004656","49.9984","248.3183","23.3531","336.7647","0","999","932","0.00039826","0.00025315","0","3933494","0 FENGYUN 3G","1 56232U 23055A   23166.08826950  .00025315  00000-0  39826-3 0  9996","2 56232  49.9984 248.3183 0004656  23.3531 336.7647 15.53383221  9323","2023-055A","56232","6784.993","92.701","410.018","403.699","0"
"GENERATED VIA SPACETRACK.ORG API","18 SPCS","56232","FENGYUN 3G","PAYLOAD","U","23055A","2023-06-15 09:50:15","420480","15.53397935","0.0004681","49.9984","246.66","24.716","335.4031","0","999","937","0.00036708","0.00023303","0","3933790","0 FENGYUN 3G","1 56232U 23055A   23166.40990070  .00023303  00000-0  36708-3 0  9998","2 56232  49.9984 246.6600 0004681  24.7160 335.4031 15.53397935  9374","2023-055A","56232","6784.951","92.700","409.992","403.640","0"
"GENERATED VIA SPACETRACK.ORG API","18 SPCS","56232","FENGYUN 3G","PAYLOAD","U","23055A","2023-06-15 12:55:30","896256","15.5340651","0.0004699","49.9984","245.9965","25.1381","334.9815","0","999","939","0.00040506","0.00025779","0","3933820","0 FENGYUN 3G","1 56232U 23055A   23166.53855204  .00025779  00000-0  40506-3 0  9991","2 56232  49.9984 245.9965 0004699  25.1381 334.9815 15.53406510  9395","2023-055A","56232","6784.926","92.699","409.979","403.602","0"
"GENERATED VIA SPACETRACK.ORG API","18 SPCS","56232","FENGYUN 3G","PAYLOAD","U","23055A","2023-06-15 19:06:01","718208","15.53420228","0.000469","49.9982","244.6691","25.9929","334.1273","0","999","943","0.00040315","0.00025667","0","3934054","0 FENGYUN 3G","1 56232U 23055A   23166.79585322  .00025667  00000-0  40315-3 0  9994","2 56232  49.9982 244.6691 0004690  25.9929 334.1273 15.53420228  9439","2023-055A","56232","6784.886","92.699","409.933","403.569","0"
"GENERATED VIA SPACETRACK.ORG API","18 SPCS","56232","FENGYUN 3G","PAYLOAD","U","23055A","2023-06-15 19:06:01","718208","15.53420228","0.000469","49.9982","244.6691","25.9929","334.1273","0","999","943","0.00040315","0.00025667","0","3934071","0 FENGYUN 3G","1 56232U 23055A   23166.79585322  .00025667  00000-0  40315-3 0  9994","2 56232  49.9982 244.6691 0004690  25.9929 334.1273 15.53420228  9439","2023-055A","56232","6784.886","92.699","409.933","403.569","0"
"GENERATED VIA SPACETRACK.ORG API","18 SPCS","56232","FENGYUN 3G","PAYLOAD","U","23055A","2023-06-16 01:16:32","296512","15.53436884","0.0004653","49.9982","243.3417","27.1831","332.938","0","999","947","0.00045342","0.00028956","0","3934314","0 FENGYUN 3G","1 56232U 23055A   23167.05315158  .00028956  00000-0  45342-3 0  9991","2 56232  49.9982 243.3417 0004653  27.1831 332.9380 15.53436884  9470","2023-055A","56232","6784.837","92.698","409.859","403.545","0"
"GENERATED VIA SPACETRACK.ORG API","18 SPCS","56232","FENGYUN 3G","PAYLOAD","U","23055A","2023-06-16 08:59:40","178112","15.53462207","0.0004672","49.9981","241.6831","28.747","331.3754","0","999","952","0.00055419","0.0003556","0","3934662","0 FENGYUN 3G","1 56232U 23055A   23167.37477058  .00035560  00000-0  55419-3 0  9999","2 56232  49.9981 241.6831 0004672  28.7470 331.3754 15.53462207  9529","2023-055A","56232","6784.763","92.696","409.798","403.459","0"
"GENERATED VIA SPACETRACK.ORG API","18 SPCS","56232","FENGYUN 3G","PAYLOAD","U","23055A","2023-06-16 12:04:55","196832","15.5347193","0.0004688","49.9981","241.0187","29.2049","330.918","0","999","954","0.00057133","0.00036692","0","3934686","0 FENGYUN 3G","1 56232U 23055A   23167.50341663  .00036692  00000-0  57133-3 0  9998","2 56232  49.9981 241.0187 0004688  29.2049 330.9180 15.53471930  9545","2023-055A","56232","6784.735","92.696","409.781","403.419","0"
"GENERATED VIA SPACETRACK.ORG API","18 SPCS","56232","FENGYUN 3G","PAYLOAD","U","23055A","2023-06-16 15:10:10","162848","15.53480878","0.0004688","49.998","240.3551","29.769","330.3543","0","999","956","0.00056317","0.00036171","0","3934887","0 FENGYUN 3G","1 56232U 23055A   23167.63206207  .00036171  00000-0  56317-3 0  9991","2 56232  49.9980 240.3551 0004688  29.7690 330.3543 15.53480878  9568","2023-055A","56232","6784.709","92.695","409.755","403.393","0"
"GENERATED VIA SPACETRACK.ORG API","18 SPCS","56232","FENGYUN 3G","PAYLOAD","U","23055A","2023-06-16 18:15:25","33824","15.53489899","0.0004682","49.9978","239.6915","30.2206","329.9031","0","999","958","0.00053264","0.00034187","0","3934949","0 FENGYUN 3G","1 56232U 23055A   23167.76070641  .00034187  00000-0  53264-3 0  9999","2 56232  49.9978 239.6915 0004682  30.2206 329.9031 15.53489899  9584","2023-055A","56232","6784.683","92.695","409.724","403.371","0"
"GENERATED VIA SPACETRACK.ORG API","18 SPCS","56232","FENGYUN 3G","PAYLOAD","U","23055A","2023-06-17 00:25:54","615936","15.53506516","0.0004671","49.9978","238.3643","31.2192","328.9052","0","999","962","0.0004962","0.00031826","0","3935268","0 FENGYUN 3G","1 56232U 23055A   23168.01799324  .00031826  00000-0  49620-3 0  9992","2 56232  49.9978 238.3643 0004671  31.2192 328.9052 15.53506516  9624","2023-055A","56232","6784.634","92.694","409.669","403.330","0"
"GENERATED VIA SPACETRACK.ORG API","18 SPCS","56232","FENGYUN 3G","PAYLOAD","U","23055A","2023-06-17 08:09:01","265472","15.53525585","0.0004649","49.9978","236.7052","32.4846","327.6407","0","999","967","0.00043969","0.00028154","0","3935580","0 FENGYUN 3G","1 56232U 23055A   23168.33959798  .00028154  00000-0  43969-3 0  9990","2 56232  49.9978 236.7052 0004649  32.4846 327.6407 15.53525585  9676","2023-055A","56232","6784.579","92.692","409.598","403.290","0"
"GENERATED VIA SPACETRACK.ORG API","18 SPCS","56232","FENGYUN 3G","PAYLOAD","U","23055A","2023-06-17 11:14:15","836640","15.53533535","0.0004656","49.9977","236.0417","32.9429","327.1828","0","999","969","0.00044469","0.00028489","0","3935591","0 FENGYUN 3G","1 56232U 23055A   23168.46823885  .00028489  00000-0  44469-3 0  9998","2 56232  49.9977 236.0417 0004656  32.9429 327.1828 15.53533535  9691","2023-055A","56232","6784.556","92.692","409.580","403.262","0"
"GENERATED VIA SPACETRACK.ORG API","18 SPCS","56232","FENGYUN 3G","PAYLOAD","U","23055A","2023-06-17 17:24:44","831232","15.53547754","0.0004653","49.9976","234.7143","33.9486","326.1778","0","999","973","0.00041734","0.00026716","0","3935879","0 FENGYUN 3G","1 56232U 23055A   23168.72551888  .00026716  00000-0  41734-3 0  9991","2 56232  49.9976 234.7143 0004653  33.9486 326.1778 15.53547754  9738","2023-055A","56232","6784.514","92.691","409.536","403.223","0"
